[Satellite]
VERSION=1.1
NAME=FUNCUBE-1 (AO-73)
NICKNAME=AO-73
TLE1=1 39444U 13066AE  19317.50550673  .00000237  00000-0  35611-4 0  9994
TLE2=2 39444  97.5585 324.7789 0056544 262.3635  97.1155 14.82008419321827
STATUS=0
